JILIN-1                 
1 40961U 15057D   26201.25003739  .00000393  00000+0  60793-4 0  9991
2 40961  97.6523 198.9781 0017663 150.9418 209.2781 14.78205769580492
JILIN-1 03              
1 41914U 17002B   26201.31682558  .00007477  00000+0  17542-3 0  9994
2 41914  97.1958 207.9523 0007585  65.7646 294.4394 15.42310654526961
JILIN-1 04              
1 43022U 17074A   26201.29300925  .00008145  00000+0  18547-3 0  9996
2 43022  97.4874 311.8115 0005158  86.8980 273.2858 15.43214769479377
JILIN-1 05              
1 43023U 17074B   26201.25597472  .00004840  00000+0  14801-3 0  9995
2 43023  97.4878 307.8717 0006583 110.7872 249.4076 15.34331703479077
JILIN-1 06              
1 43024U 17074C   26201.23285298  .00003618  00000+0  11227-3 0  9995
2 43024  97.4803 304.8129 0008331 119.2993 240.9084 15.34031350478902
JILIN-1 07              
1 43159U 18008E   26201.27438262  .00004871  00000+0  14471-3 0  9993
2 43159  97.1770 220.3308 0006325 305.3667  54.6986 15.35213156470077
JILIN-1 08              
1 43160U 18008F   26201.29826425  .00003353  00000+0  10410-3 0  9992
2 43160  97.1806 219.6324 0004717 331.3577  28.7407 15.34043702470022
JILIN-1 09              
1 43943U 19005B   26201.27906250  .00002514  00000+0  11735-3 0  9991
2 43943  97.4741 295.9657 0001857  24.6037 335.5286 15.20765256414171
JILIN-1 10              
1 43946U 19005E   26201.24320932  .00003175  00000+0  12614-3 0  9999
2 43946  97.4793 300.0569 0009029 153.5177 206.6524 15.26038744414351
